{
    "links": {
        "self": "http://www.neowsapp.com/rest/v1/neo/3602787?api_key=iIulBulltgU6a56xZRHN4H3l9WmuAYTsLGpBGhQ2"
    },
    "id": "3602787",
    "neo_reference_id": "3602787",
    "name": "(2012 HL8)",
    "designation": "2012 HL8",
    "nasa_jpl_url": "http://ssd.jpl.nasa.gov/sbdb.cgi?sstr=3602787",
    "absolute_magnitude_h": 23.7,
    "estimated_diameter": {
        "kilometers": {
            "estimated_diameter_min": 0.0483676488,
            "estimated_diameter_max": 0.1081533507
        },
        "meters": {
            "estimated_diameter_min": 48.3676488219,
            "estimated_diameter_max": 108.1533506775
        },
        "miles": {
            "estimated_diameter_min": 0.0300542543,
            "estimated_diameter_max": 0.0672033557
        },
        "feet": {
            "estimated_diameter_min": 158.6865169607,
            "estimated_diameter_max": 354.8338390368
        }
    },
    "is_potentially_hazardous_asteroid": false,
    "close_approach_data": [
        {
            "close_approach_date": "2012-05-25",
            "close_approach_date_full": "2012-May-25 23:17",
            "epoch_date_close_approach": 1337987820000,
            "relative_velocity": {
                "kilometers_per_second": "6.6268095346",
                "kilometers_per_hour": "23856.514324528",
                "miles_per_hour": "14823.5102479268"
            },
            "miss_distance": {
                "astronomical": "0.1312555357",
                "lunar": "51.0584033873",
                "kilometers": "19635548.566428959",
                "miles": "12200964.1129552742"
            },
            "orbiting_body": "Earth"
        }
    ],
    "orbital_data": {
        "orbit_id": "11",
        "orbit_determination_date": "2017-04-06 08:50:00",
        "first_observation_date": "2012-04-21",
        "last_observation_date": "2012-06-25",
        "data_arc_in_days": 65,
        "observations_used": 34,
        "orbit_uncertainty": "6",
        "minimum_orbit_intersection": ".115098",
        "jupiter_tisserand_invariant": "3.279",
        "epoch_osculation": "2459000.5",
        "eccentricity": ".5388628287202439",
        "semi_major_axis": "2.448649579398466",
        "inclination": "3.523171664635635",
        "ascending_node_longitude": "65.2628089173224",
        "orbital_period": "1399.549891459595",
        "perihelion_distance": "1.129163340499173",
        "perihelion_argument": "187.8253979784446",
        "aphelion_distance": "3.768135818297758",
        "perihelion_time": "2458876.976713911681",
        "mean_anomaly": "31.77334603300114",
        "mean_motion": ".2572255567284957",
        "equinox": "J2000",
        "orbit_class": {
            "orbit_class_type": "AMO",
            "orbit_class_description": "Near-Earth asteroid orbits similar to that of 1221 Amor",
            "orbit_class_range": "1.017 AU < q (perihelion) < 1.3 AU"
        }
    },
    "is_sentry_object": false
}